{
    "links": {
        "self": "http://www.neowsapp.com/rest/v1/neo/3773056?api_key=iIulBulltgU6a56xZRHN4H3l9WmuAYTsLGpBGhQ2"
    },
    "id": "3773056",
    "neo_reference_id": "3773056",
    "name": "(2017 FS102)",
    "designation": "2017 FS102",
    "nasa_jpl_url": "http://ssd.jpl.nasa.gov/sbdb.cgi?sstr=3773056",
    "absolute_magnitude_h": 26.9,
    "estimated_diameter": {
        "kilometers": {
            "estimated_diameter_min": 0.0110803882,
            "estimated_diameter_max": 0.0247765013
        },
        "meters": {
            "estimated_diameter_min": 11.0803882126,
            "estimated_diameter_max": 24.7765012606
        },
        "miles": {
            "estimated_diameter_min": 0.0068850319,
            "estimated_diameter_max": 0.0153953994
        },
        "feet": {
            "estimated_diameter_min": 36.3529808636,
            "estimated_diameter_max": 81.2877363957
        }
    },
    "is_potentially_hazardous_asteroid": false,
    "close_approach_data": [
        {
            "close_approach_date": "2017-04-07",
            "close_approach_date_full": "2017-Apr-07 19:59",
            "epoch_date_close_approach": 1491595140000,
            "relative_velocity": {
                "kilometers_per_second": "7.2467780978",
                "kilometers_per_hour": "26088.4011519164",
                "miles_per_hour": "16210.3179268672"
            },
            "miss_distance": {
                "astronomical": "0.0197627024",
                "lunar": "7.6876912336",
                "kilometers": "2956458.184483888",
                "miles": "1837057.9303301344"
            },
            "orbiting_body": "Earth"
        },
        {
            "close_approach_date": "2020-03-08",
            "close_approach_date_full": "2020-Mar-08 01:26",
            "epoch_date_close_approach": 1583630760000,
            "relative_velocity": {
                "kilometers_per_second": "14.2361647405",
                "kilometers_per_hour": "51250.1930658403",
                "miles_per_hour": "31844.8769080495"
            },
            "miss_distance": {
                "astronomical": "0.2348741834",
                "lunar": "91.3660573426",
                "kilometers": "35136677.554629358",
                "miles": "21832919.0265388204"
            },
            "orbiting_body": "Earth"
        }
    ],
    "orbital_data": {
        "orbit_id": "5",
        "orbit_determination_date": "2017-04-05 06:18:29",
        "first_observation_date": "2017-03-28",
        "last_observation_date": "2017-04-05",
        "data_arc_in_days": 8,
        "observations_used": 30,
        "orbit_uncertainty": "8",
        "minimum_orbit_intersection": ".00704972",
        "jupiter_tisserand_invariant": "3.598",
        "epoch_osculation": "2457843.5",
        "eccentricity": ".5112210714710248",
        "semi_major_axis": "2.069324669741304",
        "inclination": "1.485707396722793",
        "ascending_node_longitude": "25.59671301882639",
        "orbital_period": "1087.279950759071",
        "perihelion_distance": "1.01144229485473",
        "perihelion_argument": "184.3860768479644",
        "aphelion_distance": "3.127207044627878",
        "perihelion_time": "2457861.040636129368",
        "mean_anomaly": "354.1922694314707",
        "mean_motion": ".3311014791992354",
        "equinox": "J2000",
        "orbit_class": {
            "orbit_class_type": "APO",
            "orbit_class_description": "Near-Earth asteroid orbits which cross the Earth’s orbit similar to that of 1862 Apollo",
            "orbit_class_range": "a (semi-major axis) > 1.0 AU; q (perihelion) < 1.017 AU"
        }
    },
    "is_sentry_object": false
}